{
    "links": {
        "self": "http://www.neowsapp.com/rest/v1/neo/3760083?api_key=iIulBulltgU6a56xZRHN4H3l9WmuAYTsLGpBGhQ2"
    },
    "id": "3760083",
    "neo_reference_id": "3760083",
    "name": "(2016 SZ35)",
    "designation": "2016 SZ35",
    "nasa_jpl_url": "http://ssd.jpl.nasa.gov/sbdb.cgi?sstr=3760083",
    "absolute_magnitude_h": 22.5,
    "estimated_diameter": {
        "kilometers": {
            "estimated_diameter_min": 0.0840533402,
            "estimated_diameter_max": 0.1879489824
        },
        "meters": {
            "estimated_diameter_min": 84.0533402073,
            "estimated_diameter_max": 187.9489824394
        },
        "miles": {
            "estimated_diameter_min": 0.0522283081,
            "estimated_diameter_max": 0.1167860472
        },
        "feet": {
            "estimated_diameter_min": 275.7655606856,
            "estimated_diameter_max": 616.6305395464
        }
    },
    "is_potentially_hazardous_asteroid": false,
    "close_approach_data": [
        {
            "close_approach_date": "1969-10-18",
            "close_approach_date_full": "1969-Oct-18 14:52",
            "epoch_date_close_approach": -6426480000,
            "relative_velocity": {
                "kilometers_per_second": "15.4666154294",
                "kilometers_per_hour": "55679.8155459628",
                "miles_per_hour": "34597.2720541011"
            },
            "miss_distance": {
                "astronomical": "0.3106174032",
                "lunar": "120.8301698448",
                "kilometers": "46467701.903651184",
                "miles": "28873691.0720829792"
            },
            "orbiting_body": "Earth"
        },
        {
            "close_approach_date": "2011-10-14",
            "close_approach_date_full": "2011-Oct-14 19:23",
            "epoch_date_close_approach": 1318620180000,
            "relative_velocity": {
                "kilometers_per_second": "10.9907081994",
                "kilometers_per_hour": "39566.5495176751",
                "miles_per_hour": "24585.1151711354"
            },
            "miss_distance": {
                "astronomical": "0.4211954176",
                "lunar": "163.8450174464",
                "kilometers": "63009937.326720512",
                "miles": "39152559.5265145856"
            },
            "orbiting_body": "Earth"
        },
        {
            "close_approach_date": "2016-10-20",
            "close_approach_date_full": "2016-Oct-20 15:24",
            "epoch_date_close_approach": 1476977040000,
            "relative_velocity": {
                "kilometers_per_second": "11.8917601015",
                "kilometers_per_hour": "42810.3363654997",
                "miles_per_hour": "26600.6781711073"
            },
            "miss_distance": {
                "astronomical": "0.2412862345",
                "lunar": "93.8603452205",
                "kilometers": "36095906.741520515",
                "miles": "22428956.404652507"
            },
            "orbiting_body": "Earth"
        },
        {
            "close_approach_date": "2021-10-18",
            "close_approach_date_full": "2021-Oct-18 14:06",
            "epoch_date_close_approach": 1634565960000,
            "relative_velocity": {
                "kilometers_per_second": "15.6200919539",
                "kilometers_per_hour": "56232.3310340378",
                "miles_per_hour": "34940.5836916776"
            },
            "miss_distance": {
                "astronomical": "0.3176624247",
                "lunar": "123.5706832083",
                "kilometers": "47521622.114155389",
                "miles": "29528566.7239028082"
            },
            "orbiting_body": "Earth"
        }
    ],
    "orbital_data": {
        "orbit_id": "9",
        "orbit_determination_date": "2017-04-06 08:23:31",
        "first_observation_date": "2016-09-30",
        "last_observation_date": "2016-11-13",
        "data_arc_in_days": 44,
        "observations_used": 38,
        "orbit_uncertainty": "6",
        "minimum_orbit_intersection": ".22988",
        "jupiter_tisserand_invariant": "3.854",
        "epoch_osculation": "2459000.5",
        "eccentricity": ".3977252365214271",
        "semi_major_axis": "1.830322983333625",
        "inclination": "21.69557433058977",
        "ascending_node_longitude": "11.34112852881584",
        "orbital_period": "904.4613782792469",
        "perihelion_distance": "1.102357341876655",
        "perihelion_argument": "59.72485944807617",
        "aphelion_distance": "2.558288624790594",
        "perihelion_time": "2458635.488558752633",
        "mean_anomaly": "145.2843891455605",
        "mean_motion": ".3980269458104514",
        "equinox": "J2000",
        "orbit_class": {
            "orbit_class_type": "AMO",
            "orbit_class_description": "Near-Earth asteroid orbits similar to that of 1221 Amor",
            "orbit_class_range": "1.017 AU < q (perihelion) < 1.3 AU"
        }
    },
    "is_sentry_object": false
}